ONEWEB-0156             
1 48052U 21025L   23294.91073515  .00000374  00000+0  98782-3 0  9990
2 48052  87.8947 153.0888 0001614  80.4832 279.6479 13.13470449126339
ONEWEB-0161             
1 48053U 21025M   23294.88321266 -.00000484  00000+0 -13600-2 0  9995
2 48053  87.9023 153.0978 0001964  87.8623 272.2731 13.13472234126270
ONEWEB-0158             
1 48054U 21025N   23294.84727399  .00001239  00000+0  33564-2 0  9997
2 48054  87.8941 153.1069 0001852  75.7328 284.4006 13.13465627126385
ONEWEB-0157             
1 48055U 21025P   23294.87051757 -.00000192  00000+0 -56189-3 0  9997
2 48055  87.9021 153.1078 0001496  86.0789 274.0511 13.13468230126329
ONEWEB-0162             
1 48056U 21025Q   23294.90862052  .00000378  00000+0  10011-2 0  9997
2 48056  87.9017 153.0986 0001662  82.1003 278.0314 13.13470599126307
ONEWEB-0155             
1 48057U 21025R   23294.54889072 -.00000092  00000+0 -28547-3 0  9998
2 48057  87.9023 153.1765 0001624  77.9205 282.2106 13.13470605126398
ONEWEB-0149             
1 48058U 21025S   23294.87474971 -.00000308  00000+0 -87791-3 0  9999
2 48058  87.9020 153.1103 0001820  92.1202 268.0136 13.13468282126254
ONEWEB-0148             
1 48059U 21025T   23294.91496279  .00000370  00000+0  97946-3 0  9990
2 48059  87.9015 153.1088 0001713 108.1879 251.9437 13.13470451126379
